[{"OBJECT_NAME":"ONEWEB-0572","OBJECT_ID":"2023-004M","EPOCH":"2026-01-25T07:17:20.452416","MEAN_MOTION":13.17651404,"ECCENTRICITY":0.00018139,"INCLINATION":87.9088,"RA_OF_ASC_NODE":34.2614,"ARG_OF_PERICENTER":97.0929,"MEAN_ANOMALY":263.0409,"EPHEMERIS_TYPE":0,"CLASSIFICATION_TYPE":"U","NORAD_CAT_ID":55151,"ELEMENT_SET_NO":999,"REV_AT_EPOCH":14866,"BSTAR":0.00023679729,"MEAN_MOTION_DOT":1.05e-6,"MEAN_MOTION_DDOT":0},{"OBJECT_NAME":"ONEWEB-0573","OBJECT_ID":"2023-004N","EPOCH":"2026-01-25T07:33:15.199200","MEAN_MOTION":13.1868756,"ECCENTRICITY":0.00020887,"INCLINATION":87.9183,"RA_OF_ASC_NODE":3.8461,"ARG_OF_PERICENTER":108.1458,"MEAN_ANOMALY":251.9902,"EPHEMERIS_TYPE":0,"CLASSIFICATION_TYPE":"U","NORAD_CAT_ID":55152,"ELEMENT_SET_NO":999,"REV_AT_EPOCH":15086,"BSTAR":9.8996078e-5,"MEAN_MOTION_DOT":5.2e-7,"MEAN_MOTION_DDOT":0},{"OBJECT_NAME":"ONEWEB-0588","OBJECT_ID":"2023-004P","EPOCH":"2026-01-25T07:23:45.577824","MEAN_MOTION":13.18686604,"ECCENTRICITY":0.00021079,"INCLINATION":87.9189,"RA_OF_ASC_NODE":3.8464,"ARG_OF_PERICENTER":95.3671,"MEAN_ANOMALY":264.7702,"EPHEMERIS_TYPE":0,"CLASSIFICATION_TYPE":"U","NORAD_CAT_ID":55153,"ELEMENT_SET_NO":999,"REV_AT_EPOCH":15086,"BSTAR":0.0001720124,"MEAN_MOTION_DOT":8.1e-7,"MEAN_MOTION_DDOT":0},{"OBJECT_NAME":"ONEWEB-0598","OBJECT_ID":"2023-004Q","EPOCH":"2026-01-25T02:29:29.061312","MEAN_MOTION":13.11418927,"ECCENTRICITY":0.0001391,"INCLINATION":87.8811,"RA_OF_ASC_NODE":49.5513,"ARG_OF_PERICENTER":110.5759,"MEAN_ANOMALY":249.5518,"EPHEMERIS_TYPE":0,"CLASSIFICATION_TYPE":"U","NORAD_CAT_ID":55154,"ELEMENT_SET_NO":999,"REV_AT_EPOCH":14714,"BSTAR":-0.0010280925,"MEAN_MOTION_DOT":-3.52e-6,"MEAN_MOTION_DDOT":0},{"OBJECT_NAME":"ONEWEB-0599","OBJECT_ID":"2023-004R","EPOCH":"2026-01-24T17:36:00.666720","MEAN_MOTION":13.17651625,"ECCENTRICITY":0.00015908,"INCLINATION":87.9085,"RA_OF_ASC_NODE":34.3745,"ARG_OF_PERICENTER":91.0765,"MEAN_ANOMALY":269.0549,"EPHEMERIS_TYPE":0,"CLASSIFICATION_TYPE":"U","NORAD_CAT_ID":55155,"ELEMENT_SET_NO":999,"REV_AT_EPOCH":14859,"BSTAR":7.7697001e-5,"MEAN_MOTION_DOT":4.3e-7,"MEAN_MOTION_DDOT":0},{"OBJECT_NAME":"ONEWEB-0614","OBJECT_ID":"2023-004S","EPOCH":"2026-01-25T07:51:45.974880","MEAN_MOTION":13.11417411,"ECCENTRICITY":0.00021699,"INCLINATION":87.8816,"RA_OF_ASC_NODE":49.5158,"ARG_OF_PERICENTER":93.0162,"MEAN_ANOMALY":267.1214,"EPHEMERIS_TYPE":0,"CLASSIFICATION_TYPE":"U","NORAD_CAT_ID":55156,"ELEMENT_SET_NO":999,"REV_AT_EPOCH":14711,"BSTAR":-0.0015802016,"MEAN_MOTION_DOT":-5.47e-6,"MEAN_MOTION_DDOT":0},{"OBJECT_NAME":"ONEWEB-0616","OBJECT_ID":"2023-004T","EPOCH":"2026-01-25T01:54:09.969120","MEAN_MOTION":13.17650576,"ECCENTRICITY":0.00012124,"INCLINATION":87.9091,"RA_OF_ASC_NODE":34.3017,"ARG_OF_PERICENTER":60.8833,"MEAN_ANOMALY":299.242,"EPHEMERIS_TYPE":0,"CLASSIFICATION_TYPE":"U","NORAD_CAT_ID":55157,"ELEMENT_SET_NO":999,"REV_AT_EPOCH":14885,"BSTAR":0.00010983383,"MEAN_MOTION_DOT":5.6e-7,"MEAN_MOTION_DDOT":0},{"OBJECT_NAME":"ONEWEB-0617","OBJECT_ID":"2023-004U","EPOCH":"2026-01-25T02:05:04.334208","MEAN_MOTION":13.11416535,"ECCENTRICITY":0.00021231,"INCLINATION":87.8819,"RA_OF_ASC_NODE":49.5442,"ARG_OF_PERICENTER":99.7926,"MEAN_ANOMALY":260.3442,"EPHEMERIS_TYPE":0,"CLASSIFICATION_TYPE":"U","NORAD_CAT_ID":55158,"ELEMENT_SET_NO":999,"REV_AT_EPOCH":14710,"BSTAR":-0.0015419785,"MEAN_MOTION_DOT":-5.34e-6,"MEAN_MOTION_DDOT":0},{"OBJECT_NAME":"ONEWEB-0618","OBJECT_ID":"2023-004V","EPOCH":"2026-01-25T01:43:21.603648","MEAN_MOTION":15.11414759,"ECCENTRICITY":0.00150399,"INCLINATION":86.9034,"RA_OF_ASC_NODE":235.6761,"ARG_OF_PERICENTER":102.0173,"MEAN_ANOMALY":258.2753,"EPHEMERIS_TYPE":0,"CLASSIFICATION_TYPE":"U","NORAD_CAT_ID":55159,"ELEMENT_SET_NO":999,"REV_AT_EPOCH":16063,"BSTAR":0.00047980122,"MEAN_MOTION_DOT":8.156e-5,"MEAN_MOTION_DDOT":0},{"OBJECT_NAME":"ONEWEB-0619","OBJECT_ID":"2023-004W","EPOCH":"2026-01-25T06:19:02.622720","MEAN_MOTION":13.17650104,"ECCENTRICITY":0.00020621,"INCLINATION":87.9096,"RA_OF_ASC_NODE":34.2382,"ARG_OF_PERICENTER":78.9385,"MEAN_ANOMALY":281.1978,"EPHEMERIS_TYPE":0,"CLASSIFICATION_TYPE":"U","NORAD_CAT_ID":55160,"ELEMENT_SET_NO":999,"REV_AT_EPOCH":14877,"BSTAR":7.209324e-6,"MEAN_MOTION_DOT":1.6e-7,"MEAN_MOTION_DDOT":0},{"OBJECT_NAME":"ONEWEB-0620","OBJECT_ID":"2023-004X","EPOCH":"2026-01-25T07:27:21.043872","MEAN_MOTION":13.11415266,"ECCENTRICITY":0.00018643,"INCLINATION":87.8815,"RA_OF_ASC_NODE":49.5183,"ARG_OF_PERICENTER":103.5232,"MEAN_ANOMALY":256.6104,"EPHEMERIS_TYPE":0,"CLASSIFICATION_TYPE":"U","NORAD_CAT_ID":55161,"ELEMENT_SET_NO":999,"REV_AT_EPOCH":14710,"BSTAR":-0.001338531,"MEAN_MOTION_DOT":-4.62e-6,"MEAN_MOTION_DDOT":0},{"OBJECT_NAME":"ONEWEB-0621","OBJECT_ID":"2023-004Y","EPOCH":"2026-01-25T02:36:49.152672","MEAN_MOTION":13.11417914,"ECCENTRICITY":0.00020491,"INCLINATION":87.8825,"RA_OF_ASC_NODE":49.5337,"ARG_OF_PERICENTER":90.4506,"MEAN_ANOMALY":269.6857,"EPHEMERIS_TYPE":0,"CLASSIFICATION_TYPE":"U","NORAD_CAT_ID":55162,"ELEMENT_SET_NO":999,"REV_AT_EPOCH":14705,"BSTAR":0.00020419177,"MEAN_MOTION_DOT":8.5e-7,"MEAN_MOTION_DDOT":0},{"OBJECT_NAME":"ONEWEB-0622","OBJECT_ID":"2023-004Z","EPOCH":"2026-01-25T08:13:44.194368","MEAN_MOTION":13.11418372,"ECCENTRICITY":0.00025611,"INCLINATION":87.8821,"RA_OF_ASC_NODE":49.4922,"ARG_OF_PERICENTER":101.2462,"MEAN_ANOMALY":258.8954,"EPHEMERIS_TYPE":0,"CLASSIFICATION_TYPE":"U","NORAD_CAT_ID":55163,"ELEMENT_SET_NO":999,"REV_AT_EPOCH":14707,"BSTAR":-7.1009626e-5,"MEAN_MOTION_DOT":-1.2e-7,"MEAN_MOTION_DDOT":0},{"OBJECT_NAME":"ONEWEB-0623","OBJECT_ID":"2023-004AA","EPOCH":"2026-01-25T06:11:45.191616","MEAN_MOTION":13.17650472,"ECCENTRICITY":0.0002574,"INCLINATION":87.9083,"RA_OF_ASC_NODE":34.2853,"ARG_OF_PERICENTER":86.8127,"MEAN_ANOMALY":273.3299,"EPHEMERIS_TYPE":0,"CLASSIFICATION_TYPE":"U","NORAD_CAT_ID":55164,"ELEMENT_SET_NO":999,"REV_AT_EPOCH":14876,"BSTAR":-0.00011586056,"MEAN_MOTION_DOT":-3.2e-7,"MEAN_MOTION_DDOT":0},{"OBJECT_NAME":"ONEWEB-0624","OBJECT_ID":"2023-004AB","EPOCH":"2026-01-24T16:37:58.366560","MEAN_MOTION":13.12923531,"ECCENTRICITY":0.00021067,"INCLINATION":87.8929,"RA_OF_ASC_NODE":19.0999,"ARG_OF_PERICENTER":88.5874,"MEAN_ANOMALY":271.5496,"EPHEMERIS_TYPE":0,"CLASSIFICATION_TYPE":"U","NORAD_CAT_ID":55165,"ELEMENT_SET_NO":999,"REV_AT_EPOCH":14924,"BSTAR":-0.00074275371,"MEAN_MOTION_DOT":-2.56e-6,"MEAN_MOTION_DDOT":0},{"OBJECT_NAME":"ONEWEB-0625","OBJECT_ID":"2023-004AC","EPOCH":"2026-01-25T02:18:29.087136","MEAN_MOTION":13.17648949,"ECCENTRICITY":0.00016699,"INCLINATION":87.9082,"RA_OF_ASC_NODE":34.3115,"ARG_OF_PERICENTER":85.001,"MEAN_ANOMALY":275.1312,"EPHEMERIS_TYPE":0,"CLASSIFICATION_TYPE":"U","NORAD_CAT_ID":55166,"ELEMENT_SET_NO":999,"REV_AT_EPOCH":14873,"BSTAR":-0.00016162203,"MEAN_MOTION_DOT":-5.0e-7,"MEAN_MOTION_DDOT":0},{"OBJECT_NAME":"ONEWEB-0626","OBJECT_ID":"2023-004AD","EPOCH":"2026-01-25T02:03:53.760096","MEAN_MOTION":13.17649486,"ECCENTRICITY":0.0001636,"INCLINATION":87.9084,"RA_OF_ASC_NODE":34.314,"ARG_OF_PERICENTER":105.3217,"MEAN_ANOMALY":254.8095,"EPHEMERIS_TYPE":0,"CLASSIFICATION_TYPE":"U","NORAD_CAT_ID":55167,"ELEMENT_SET_NO":999,"REV_AT_EPOCH":14873,"BSTAR":0.00010108602,"MEAN_MOTION_DOT":5.2e-7,"MEAN_MOTION_DDOT":0}]
