ONEWEB-0572             
1 55151U 23004M   26025.30370894  .00000105  00000+0  23680-3 0  9992
2 55151  87.9088  34.2614 0001813  97.0929 263.0409 13.17651404148669
ONEWEB-0573             
1 55152U 23004N   26025.31475925  .00000052  00000+0  98996-4 0  9999
2 55152  87.9183   3.8461 0002088 108.1458 251.9902 13.18687560150866
ONEWEB-0588             
1 55153U 23004P   26025.30816641  .00000081  00000+0  17201-3 0  9994
2 55153  87.9189   3.8464 0002107  95.3671 264.7702 13.18686604150860
ONEWEB-0598             
1 55154U 23004Q   26025.10380858 -.00000352  00000+0 -10281-2 0  9992
2 55154  87.8811  49.5513 0001391 110.5759 249.5518 13.11418927147142
ONEWEB-0599             
1 55155U 23004R   26024.73334105  .00000043  00000+0  77697-4 0  9996
2 55155  87.9085  34.3745 0001590  91.0765 269.0549 13.17651625148598
ONEWEB-0614             
1 55156U 23004S   26025.32761545 -.00000547  00000+0 -15802-2 0  9994
2 55156  87.8816  49.5158 0002169  93.0162 267.1214 13.11417411147114
ONEWEB-0616             
1 55157U 23004T   26025.07928205  .00000056  00000+0  10983-3 0  9994
2 55157  87.9091  34.3017 0001212  60.8833 299.2420 13.17650576148856
ONEWEB-0617             
1 55158U 23004U   26025.08685572 -.00000534  00000+0 -15420-2 0  9996
2 55158  87.8819  49.5442 0002123  99.7926 260.3442 13.11416535147109
ONEWEB-0618             
1 55159U 23004V   26025.07177782  .00008156  00000+0  47980-3 0  9998
2 55159  86.9034 235.6761 0015039 102.0173 258.2753 15.11414759160635
ONEWEB-0619             
1 55160U 23004W   26025.26322480  .00000016  00000+0  72093-5 0  9990
2 55160  87.9096  34.2382 0002062  78.9385 281.1978 13.17650104148771
ONEWEB-0620             
1 55161U 23004X   26025.31066023 -.00000462  00000+0 -13385-2 0  9998
2 55161  87.8815  49.5183 0001864 103.5232 256.6104 13.11415266147109
ONEWEB-0621             
1 55162U 23004Y   26025.10890223  .00000085  00000+0  20419-3 0  9999
2 55162  87.8825  49.5337 0002049  90.4506 269.6857 13.11417914147051
ONEWEB-0622             
1 55163U 23004Z   26025.34287262 -.00000012  00000+0 -71010-4 0  9995
2 55163  87.8821  49.4922 0002561 101.2462 258.8954 13.11418372147077
ONEWEB-0623             
1 55164U 23004AA  26025.25816194 -.00000032  00000+0 -11586-3 0  9991
2 55164  87.9083  34.2853 0002574  86.8127 273.3299 13.17650472148760
ONEWEB-0624             
1 55165U 23004AB  26024.69303665 -.00000256  00000+0 -74275-3 0  9995
2 55165  87.8929  19.0999 0002106  88.5874 271.5496 13.12923531149247
ONEWEB-0625             
1 55166U 23004AC  26025.09616999 -.00000050  00000+0 -16162-3 0  9991
2 55166  87.9082  34.3115 0001669  85.0010 275.1312 13.17648949148738
ONEWEB-0626             
1 55167U 23004AD  26025.08603889  .00000052  00000+0  10109-3 0  9990
2 55167  87.9084  34.3140 0001636 105.3217 254.8095 13.17649486148737
